{"type": "FeatureCollection", "features": [ {"type": "Feature", "properties": {"norad_id": 40938, "name": "BEIDOU-3S IGSO-2S (C56)", "group": "gnss", "lat": 49.16164356353764, "lon": 0.29182498785033145, "alt_km": 35791.32865289685, "timestamp": "2025-12-20T11:30:28.620044+00:00", "meta": {"OBJECT_NAME": "BEIDOU-3S IGSO-2S (C56)", "OBJECT_ID": "2015-053A", "EPOCH": "2025-12-19T17:08:36.001248", "MEAN_MOTION": 1.00268614, "ECCENTRICITY": 0.0060519, "INCLINATION": 49.4997, "RA_OF_ASC_NODE": 260.9235, "ARG_OF_PERICENTER": 188.6334, "MEAN_ANOMALY": 352.0393, "EPHEMERIS_TYPE": 0, "CLASSIFICATION_TYPE": "U", "NORAD_CAT_ID": 40938, "ELEMENT_SET_NO": 999, "REV_AT_EPOCH": 3755, "BSTAR": 0, "MEAN_MOTION_DOT": -1.11e-06, "MEAN_MOTION_DDOT": 0}, "tle": {"line1": "1 40938U 15053A   25353.71430557 -.00000111  00000+0  00000+0 0  9990", "line2": "2 40938  49.4997 260.9235 0060519 188.6334 352.0393  1.00268614 37552"}}, "geometry": {"type": "Point", "coordinates": [0.29182498785033145, 49.16164356353764]}}, {"type": "Feature", "properties": {"norad_id": 41019, "name": "GPS BIIF-11 (PRN 10)", "group": "gnss", "lat": 35.81153338263686, "lon": -170.40598601900177, "alt_km": 20197.693211084126, "timestamp": "2025-12-20T11:30:28.620055+00:00", "meta": {"OBJECT_NAME": "GPS BIIF-11 (PRN 10)", "OBJECT_ID": "2015-062A", "EPOCH": "2025-12-18T07:03:43.989696", "MEAN_MOTION": 2.00567221, "ECCENTRICITY": 0.0110964, "INCLINATION": 56.8362, "RA_OF_ASC_NODE": 37.7874, "ARG_OF_PERICENTER": 230.0867, "MEAN_ANOMALY": 128.9943, "EPHEMERIS_TYPE": 0, "CLASSIFICATION_TYPE": "U", "NORAD_CAT_ID": 41019, "ELEMENT_SET_NO": 999, "REV_AT_EPOCH": 7420, "BSTAR": 0, "MEAN_MOTION_DOT": -6.9e-07, "MEAN_MOTION_DDOT": 0}, "tle": {"line1": "1 41019U 15062A   25352.29425914 -.00000069  00000+0  00000+0 0  9996", "line2": "2 41019  56.8362  37.7874 0110964 230.0867 128.9943  2.00567221 74204"}}, "geometry": {"type": "Point", "coordinates": [-170.40598601900177, 35.81153338263686]}}, {"type": "Feature", "properties": {"norad_id": 41028, "name": "GSAT-15 (GAGAN/PRN 139)", "group": "gnss", "lat": 0.022982408732114167, "lon": -4.554583944333681, "alt_km": 35791.13009190581, "timestamp": "2025-12-20T11:30:28.620070+00:00", "meta": {"OBJECT_NAME": "GSAT-15 (GAGAN/PRN 139)", "OBJECT_ID": "2015-065A", "EPOCH": "2025-12-20T03:24:05.092704", "MEAN_MOTION": 1.0027245, "ECCENTRICITY": 0.0002411, "INCLINATION": 0.0303, "RA_OF_ASC_NODE": 271.3406, "ARG_OF_PERICENTER": 323.0926, "MEAN_ANOMALY": 359.0664, "EPHEMERIS_TYPE": 0, "CLASSIFICATION_TYPE": "U", "NORAD_CAT_ID": 41028, "ELEMENT_SET_NO": 999, "REV_AT_EPOCH": 3700, "BSTAR": 0, "MEAN_MOTION_DOT": -2.34e-06, "MEAN_MOTION_DDOT": 0}, "tle": {"line1": "1 41028U 15065A   25354.14172561 -.00000234  00000+0  00000+0 0  9996", "line2": "2 41028   0.0303 271.3406 0002411 323.0926 359.0664  1.00272450 37003"}}, "geometry": {"type": "Point", "coordinates": [-4.554583944333681, 0.022982408732114167]}}, {"type": "Feature", "properties": {"norad_id": 41174, "name": "GSAT0209 (GALILEO 12)", "group": "gnss", "lat": -27.581289002050095, "lon": -52.99233807547665, "alt_km": 23230.696402335074, "timestamp": "2025-12-20T11:30:28.620082+00:00", "meta": {"OBJECT_NAME": "GSAT0209 (GALILEO 12)", "OBJECT_ID": "2015-079A", "EPOCH": "2025-12-17T18:49:30.009504", "MEAN_MOTION": 1.70474581, "ECCENTRICITY": 0.00024688, "INCLINATION": 55.7156, "RA_OF_ASC_NODE": 106.2426, "ARG_OF_PERICENTER": 347.1145, "MEAN_ANOMALY": 12.8381, "EPHEMERIS_TYPE": 0, "CLASSIFICATION_TYPE": "U", "NORAD_CAT_ID": 41174, "ELEMENT_SET_NO": 999, "REV_AT_EPOCH": 6168, "BSTAR": 0, "MEAN_MOTION_DOT": -9e-08, "MEAN_MOTION_DDOT": 0}, "tle": {"line1": "1 41174U 15079A   25351.78437511 -.00000009  00000+0  00000+0 0  9999", "line2": "2 41174  55.7156 106.2426 0002468 347.1145  12.8381  1.70474581 61685"}}, "geometry": {"type": "Point", "coordinates": [-52.99233807547665, -27.581289002050095]}}, {"type": "Feature", "properties": {"norad_id": 41175, "name": "GSAT0208 (GALILEO 11)", "group": "gnss", "lat": 54.212068954648146, "lon": 177.06666405827576, "alt_km": 23215.118762975984, "timestamp": "2025-12-20T11:30:28.620095+00:00", "meta": {"OBJECT_NAME": "GSAT0208 (GALILEO 11)", "OBJECT_ID": "2015-079B", "EPOCH": "2025-12-18T00:06:32.261184", "MEAN_MOTION": 1.70474394, "ECCENTRICITY": 0.00019057, "INCLINATION": 55.7144, "RA_OF_ASC_NODE": 106.2337, "ARG_OF_PERICENTER": 356.5595, "MEAN_ANOMALY": 3.3982, "EPHEMERIS_TYPE": 0, "CLASSIFICATION_TYPE": "U", "NORAD_CAT_ID": 41175, "ELEMENT_SET_NO": 999, "REV_AT_EPOCH": 6210, "BSTAR": 0, "MEAN_MOTION_DOT": -8e-08, "MEAN_MOTION_DDOT": 0}, "tle": {"line1": "1 41175U 15079B   25352.00454006 -.00000008  00000+0  00000+0 0  9993", "line2": "2 41175  55.7144 106.2337 0001905 356.5595   3.3982  1.70474394 62104"}}, "geometry": {"type": "Point", "coordinates": [177.06666405827576, 54.212068954648146]}}, {"type": "Feature", "properties": {"norad_id": 41241, "name": "IRNSS-1E", "group": "gnss", "lat": -23.973979508747117, "lon": 18.880805285021935, "alt_km": 35839.30680221732, "timestamp": "2025-12-20T11:30:28.620108+00:00", "meta": {"OBJECT_NAME": "IRNSS-1E", "OBJECT_ID": "2016-003A", "EPOCH": "2025-12-18T14:48:50.843232", "MEAN_MOTION": 1.00271358, "ECCENTRICITY": 0.00216611, "INCLINATION": 32.8383, "RA_OF_ASC_NODE": 62.3675, "ARG_OF_PERICENTER": 188.4275, "MEAN_ANOMALY": 170.6574, "EPHEMERIS_TYPE": 0, "CLASSIFICATION_TYPE": "U", "NORAD_CAT_ID": 41241, "ELEMENT_SET_NO": 999, "REV_AT_EPOCH": 3626, "BSTAR": 0, "MEAN_MOTION_DOT": -3.05e-06, "MEAN_MOTION_DDOT": 0}, "tle": {"line1": "1 41241U 16003A   25352.61725513 -.00000305  00000+0  00000+0 0  9996", "line2": "2 41241  32.8383  62.3675 0021661 188.4275 170.6574  1.00271358 36265"}}, "geometry": {"type": "Point", "coordinates": [18.880805285021935, -23.973979508747117]}}, {"type": "Feature", "properties": {"norad_id": 41328, "name": "GPS BIIF-12 (PRN 32)", "group": "gnss", "lat": 53.3496144454794, "lon": 164.381750894072, "alt_km": 20415.066361115005, "timestamp": "2025-12-20T11:30:28.620120+00:00", "meta": {"OBJECT_NAME": "GPS BIIF-12 (PRN 32)", "OBJECT_ID": "2016-007A", "EPOCH": "2025-12-19T20:56:37.582080", "MEAN_MOTION": 2.00560395, "ECCENTRICITY": 0.0092529, "INCLINATION": 55.41, "RA_OF_ASC_NODE": 96.5739, "ARG_OF_PERICENTER": 243.7509, "MEAN_ANOMALY": 115.2864, "EPHEMERIS_TYPE": 0, "CLASSIFICATION_TYPE": "U", "NORAD_CAT_ID": 41328, "ELEMENT_SET_NO": 999, "REV_AT_EPOCH": 7224, "BSTAR": 0, "MEAN_MOTION_DOT": -2.3e-07, "MEAN_MOTION_DDOT": 0}, "tle": {"line1": "1 41328U 16007A   25353.87265720 -.00000023  00000+0  00000+0 0  9991", "line2": "2 41328  55.4100  96.5739 0092529 243.7509 115.2864  2.00560395 72243"}}, "geometry": {"type": "Point", "coordinates": [164.381750894072, 53.3496144454794]}}, {"type": "Feature", "properties": {"norad_id": 41330, "name": "COSMOS 2514 (751)", "group": "gnss", "lat": -12.111953511022579, "lon": -46.58866125578185, "alt_km": 19149.752171664557, "timestamp": "2025-12-20T11:30:28.620132+00:00", "meta": {"OBJECT_NAME": "COSMOS 2514 (751)", "OBJECT_ID": "2016-008A", "EPOCH": "2025-12-20T00:39:52.986240", "MEAN_MOTION": 2.13102687, "ECCENTRICITY": 0.0011788, "INCLINATION": 65.1296, "RA_OF_ASC_NODE": 319.1545, "ARG_OF_PERICENTER": 220.1446, "MEAN_ANOMALY": 139.76, "EPHEMERIS_TYPE": 0, "CLASSIFICATION_TYPE": "U", "NORAD_CAT_ID": 41330, "ELEMENT_SET_NO": 999, "REV_AT_EPOCH": 7680, "BSTAR": 0, "MEAN_MOTION_DOT": -5.4e-07, "MEAN_MOTION_DDOT": 0}, "tle": {"line1": "1 41330U 16008A   25354.02769660 -.00000054  00000+0  00000+0 0  9999", "line2": "2 41330  65.1296 319.1545 0011788 220.1446 139.7600  2.13102687 76801"}}, "geometry": {"type": "Point", "coordinates": [-46.58866125578185, -12.111953511022579]}}, {"type": "Feature", "properties": {"norad_id": 41384, "name": "IRNSS-1F", "group": "gnss", "lat": -1.154693680628082, "lon": -65.62779234344612, "alt_km": 35691.06036173187, "timestamp": "2025-12-20T11:30:28.620144+00:00", "meta": {"OBJECT_NAME": "IRNSS-1F", "OBJECT_ID": "2016-015A", "EPOCH": "2025-12-19T23:41:22.009056", "MEAN_MOTION": 1.00276206, "ECCENTRICITY": 0.0022643, "INCLINATION": 4.8991, "RA_OF_ASC_NODE": 101.1179, "ARG_OF_PERICENTER": 181.5741, "MEAN_ANOMALY": 193.9029, "EPHEMERIS_TYPE": 0, "CLASSIFICATION_TYPE": "U", "NORAD_CAT_ID": 41384, "ELEMENT_SET_NO": 999, "REV_AT_EPOCH": 3587, "BSTAR": 0, "MEAN_MOTION_DOT": 1.78e-06, "MEAN_MOTION_DDOT": 0}, "tle": {"line1": "1 41384U 16015A   25353.98706029  .00000178  00000+0  00000+0 0  9996", "line2": "2 41384   4.8991 101.1179 0022643 181.5741 193.9029  1.00276206 35877"}}, "geometry": {"type": "Point", "coordinates": [-65.62779234344612, -1.154693680628082]}}, {"type": "Feature", "properties": {"norad_id": 41434, "name": "BEIDOU-2 IGSO-6 (C13)", "group": "gnss", "lat": -36.88160781575113, "lon": 14.169822348295135, "alt_km": 35765.122983443995, "timestamp": "2025-12-20T11:30:28.620155+00:00", "meta": {"OBJECT_NAME": "BEIDOU-2 IGSO-6 (C13)", "OBJECT_ID": "2016-021A", "EPOCH": "2025-12-18T14:33:38.837664", "MEAN_MOTION": 1.00292299, "ECCENTRICITY": 0.00610054, "INCLINATION": 59.9732, "RA_OF_ASC_NODE": 39.8392, "ARG_OF_PERICENTER": 230.2031, "MEAN_ANOMALY": 129.1398, "EPHEMERIS_TYPE": 0, "CLASSIFICATION_TYPE": "U", "NORAD_CAT_ID": 41434, "ELEMENT_SET_NO": 999, "REV_AT_EPOCH": 3566, "BSTAR": 0, "MEAN_MOTION_DOT": -1.41e-06, "MEAN_MOTION_DDOT": 0}, "tle": {"line1": "1 41434U 16021A   25352.60669951 -.00000141  00000+0  00000+0 0  9990", "line2": "2 41434  59.9732  39.8392 0061005 230.2031 129.1398  1.00292299 35667"}}, "geometry": {"type": "Point", "coordinates": [14.169822348295135, -36.88160781575113]}}]}